model,file,norad_id,feature,RMSE,MAPE%,h,w,span,overall_acc_percent,hidden,layers,heads,horizon_days,levels,epochs,batches,kernel,d_model,blocks,rmse_log
cnnlstm,37791_tle_20250729_214501_last90d_enctrig_w30_h30,37791,mean_motion,0.0002973200489479052,0.00194967033166904,30,30.0,last90d,99.90725377804968,512.0,,,,,120.0,128.0,5.0,,,-3.526775804371028
cnnlstm,37791_tle_20250729_214501_last90d_enctrig_w30_h30,37791,semi_major_axis,0.12306602646878526,0.0015184981748461723,30,30.0,last90d,99.90725377804968,512.0,,,,,120.0,128.0,5.0,,,-0.9098618215894911
cnnlstm,37791_tle_20250729_214501_last90d_enctrig_w30_h30,37791,inclination_deg,0.00029873330920409584,,30,30.0,last90d,99.90725377804968,512.0,,,,,120.0,128.0,5.0,,,-3.5247163502213987
cnnlstm,37791_tle_20250729_214501_last90d_enctrig_w30_h30,37791,raan_deg,3.7152024249661575,,30,30.0,last90d,99.90725377804968,512.0,,,,,120.0,128.0,5.0,,,0.5699824815288387
cnnlstm,37791_tle_20250729_214501_last90d_enctrig_w30_h30,37791,arg_perigee_deg,62.79121311549118,,30,30.0,last90d,99.90725377804968,512.0,,,,,120.0,128.0,5.0,,,1.7978988736344659
cnnlstm,37791_tle_20250729_214501_last90d_enctrig_w30_h30,37791,mean_anomaly_deg,45.36507144828168,,30,30.0,last90d,99.90725377804968,512.0,,,,,120.0,128.0,5.0,,,1.656721599211315
cnnlstm,37791_tle_20250729_214501_last180d_enctrig_w60_h30,37791,eccentricity,0.00010643475428258167,0.5313570611178875,30,60.0,last180d,99.82008634093897,512.0,,,,,120.0,128.0,5.0,,,-3.9729165381254266
cnnlstm,37791_tle_20250729_214501_last180d_enctrig_w60_h30,37791,mean_motion,0.0007173511884291615,0.004135417111683637,30,60.0,last180d,99.82008634093897,512.0,,,,,120.0,128.0,5.0,,,-3.14426817786506
cnnlstm,37791_tle_20250729_214501_last180d_enctrig_w60_h30,37791,semi_major_axis,0.34453969975358045,0.004248498953529634,30,60.0,last180d,99.82008634093897,512.0,,,,,120.0,128.0,5.0,,,-0.46276072908131516
cnnlstm,37791_tle_20250729_214501_last180d_enctrig_w60_h30,37791,inclination_deg,0.001320488405496616,,30,60.0,last180d,99.82008634093897,512.0,,,,,120.0,128.0,5.0,,,-2.8792654077481945
cnnlstm,37791_tle_20250729_214501_last180d_enctrig_w60_h30,37791,raan_deg,10.08483748877365,,30,60.0,last180d,99.82008634093897,512.0,,,,,120.0,128.0,5.0,,,1.003668904204956
cnnlstm,37791_tle_20250729_214501_last180d_enctrig_w60_h30,37791,arg_perigee_deg,106.40790640041133,,30,60.0,last180d,99.82008634093897,512.0,,,,,120.0,128.0,5.0,,,2.0269738984336563
cnnlstm,37791_tle_20250729_214501_last180d_enctrig_w60_h30,37791,mean_anomaly_deg,66.01899659269912,,30,60.0,last180d,99.82008634093897,512.0,,,,,120.0,128.0,5.0,,,1.819668919304116
cnnlstm,37791_tle_20250729_214501_last730d_enctrig_w90_h30,37791,eccentricity,0.00010240135651366046,0.5099286790937185,30,90.0,last730d,99.81860734890991,512.0,,,,,120.0,128.0,5.0,,,-3.9896942902108203
cnnlstm,37791_tle_20250729_214501_last730d_enctrig_w90_h30,37791,mean_motion,0.0026180315031552625,0.015691840962972492,30,90.0,last730d,99.81860734890991,512.0,,,,,120.0,128.0,5.0,,,-2.5820251318249205
cnnlstm,37791_tle_20250729_214501_last730d_enctrig_w90_h30,37791,semi_major_axis,1.504693239068389,0.01855743321357295,30,90.0,last730d,99.81860734890991,512.0,,,,,120.0,128.0,5.0,,,0.1774479695915578
cnnlstm,37791_tle_20250729_214501_last730d_enctrig_w90_h30,37791,inclination_deg,0.0046106111434900034,,30,90.0,last730d,99.81860734890991,512.0,,,,,120.0,128.0,5.0,,,-2.3362415044034277
cnnlstm,37791_tle_20250729_214501_last730d_enctrig_w90_h30,37791,raan_deg,513.589572299019,,30,90.0,last730d,99.81860734890991,512.0,,,,,120.0,128.0,5.0,,,2.7106161974226173
cnnlstm,37791_tle_20250729_214501_last730d_enctrig_w90_h30,37791,arg_perigee_deg,17.21096509514471,,30,90.0,last730d,99.81860734890991,512.0,,,,,120.0,128.0,5.0,,,1.2358052238280977
cnnlstm,37791_tle_20250729_214501_last730d_enctrig_w90_h30,37791,mean_anomaly_deg,25.701520318421498,,30,90.0,last730d,99.81860734890991,512.0,,,,,120.0,128.0,5.0,,,1.4099588138516252
cnnlstm,37791_tle_20250729_214501_last365d_enctrig_w90_h15,37791,eccentricity,7.817543979124578e-05,0.3897189162671566,15,90.0,last365d,99.86683410049106,512.0,,,,,120.0,128.0,5.0,,,-4.1069296668695
cnnlstm,37791_tle_20250729_214501_last365d_enctrig_w90_h15,37791,mean_motion,0.0003064287135465328,0.0018064893083646894,15,90.0,last365d,99.86683410049106,512.0,,,,,120.0,128.0,5.0,,,-3.513670542072896
cnnlstm,37791_tle_20250729_214501_last365d_enctrig_w90_h15,37791,semi_major_axis,0.6616911791177338,0.00797229295130819,15,90.0,last365d,99.86683410049106,512.0,,,,,120.0,128.0,5.0,,,-0.17934465481692718
cnnlstm,37791_tle_20250729_214501_last365d_enctrig_w90_h15,37791,inclination_deg,0.0019494616372549302,,15,90.0,last365d,99.86683410049106,512.0,,,,,120.0,128.0,5.0,,,-2.7100853067147352
cnnlstm,37791_tle_20250729_214501_last365d_enctrig_w90_h15,37791,raan_deg,67.09165731128212,,15,90.0,last365d,99.86683410049106,512.0,,,,,120.0,128.0,5.0,,,1.8266685200358739
cnnlstm,37791_tle_20250729_214501_last365d_enctrig_w90_h15,37791,arg_perigee_deg,28.112963001124104,,15,90.0,last365d,99.86683410049106,512.0,,,,,120.0,128.0,5.0,,,1.4489066210333725
cnnlstm,37791_tle_20250729_214501_last365d_enctrig_w90_h15,37791,mean_anomaly_deg,107.34321201478538,,15,90.0,last365d,99.86683410049106,512.0,,,,,120.0,128.0,5.0,,,2.0307745864738997
cnnlstm,37791_tle_20250729_214501_full_enctrig_w30_h3,37791,eccentricity,0.00018662630231578087,0.8823247626423836,3,30.0,full,99.67514998182499,512.0,,,,,120.0,128.0,5.0,,,-3.7290271486623157
cnnlstm,37791_tle_20250729_214501_full_enctrig_w30_h3,37791,mean_motion,0.007990534280770446,0.04777974099852145,3,30.0,full,99.67514998182499,512.0,,,,,120.0,128.0,5.0,,,-2.0974241809572485
cnnlstm,37791_tle_20250729_214501_full_enctrig_w30_h3,37791,semi_major_axis,3.9014132653333387,0.044445550884120166,3,30.0,full,99.67514998182499,512.0,,,,,120.0,128.0,5.0,,,0.591221956296836
cnnlstm,37791_tle_20250729_214501_full_enctrig_w30_h3,37791,inclination_deg,0.014490624852732245,,3,30.0,full,99.67514998182499,512.0,,,,,120.0,128.0,5.0,,,-1.8389128868378224
cnnlstm,37791_tle_20250729_214501_full_enctrig_w30_h3,37791,raan_deg,1790.8113419576318,,3,30.0,full,99.67514998182499,512.0,,,,,120.0,128.0,5.0,,,3.2530498362888114
cnnlstm,37791_tle_20250729_214501_full_enctrig_w30_h3,37791,arg_perigee_deg,46.29691757184111,,3,30.0,full,99.67514998182499,512.0,,,,,120.0,128.0,5.0,,,1.6655520768472472
cnnlstm,37791_tle_20250729_214501_full_enctrig_w30_h3,37791,mean_anomaly_deg,68.21632309020559,,3,30.0,full,99.67514998182499,512.0,,,,,120.0,128.0,5.0,,,1.8338883069114633
cnnlstm,37791_tle_20250729_214501_last730d_enctrig_w90_h7,37791,eccentricity,0.00014747635193981893,0.7368314079940319,7,90.0,last730d,99.73625631537288,512.0,,,,,120.0,128.0,5.0,,,-3.831277613892078
cnnlstm,37791_tle_20250729_214501_last730d_enctrig_w90_h7,37791,mean_motion,0.005173450499897558,0.031328992918133736,7,90.0,last730d,99.73625631537288,512.0,,,,,120.0,128.0,5.0,,,-2.2862197019309805
cnnlstm,37791_tle_20250729_214501_last730d_enctrig_w90_h7,37791,semi_major_axis,1.8153997442393446,0.023070652969181538,7,90.0,last730d,99.73625631537288,512.0,,,,,120.0,128.0,5.0,,,0.2589722699242755
cnnlstm,37791_tle_20250729_214501_last730d_enctrig_w90_h7,37791,inclination_deg,0.007391741276804882,,7,90.0,last730d,99.73625631537288,512.0,,,,,120.0,128.0,5.0,,,-2.1312532425485538
cnnlstm,37791_tle_20250729_214501_last730d_enctrig_w90_h7,37791,raan_deg,61.25853915630783,,7,90.0,last730d,99.73625631537288,512.0,,,,,120.0,128.0,5.0,,,1.7871666358933562
cnnlstm,37791_tle_20250729_214501_last730d_enctrig_w90_h7,37791,arg_perigee_deg,14.345808313803792,,7,90.0,last730d,99.73625631537288,512.0,,,,,120.0,128.0,5.0,,,1.1567250235708362
cnnlstm,37791_tle_20250729_214501_last730d_enctrig_w90_h7,37791,mean_anomaly_deg,14.70371022631246,,7,90.0,last730d,99.73625631537288,512.0,,,,,120.0,128.0,5.0,,,1.1674269352584699
cnnlstm,37791_tle_20250729_214501_last90d_enctrig_w60_h7,37791,eccentricity,2.7319781577311748e-05,0.12383748544380069,7,60.0,last90d,99.95764302933215,512.0,,,,,120.0,128.0,5.0,,,-4.563522777177454
cnnlstm,37791_tle_20250729_214501_last90d_enctrig_w60_h7,37791,mean_motion,0.00026652298056954456,0.0017529491742607206,7,60.0,last90d,99.95764302933215,512.0,,,,,120.0,128.0,5.0,,,-3.574265338591399
cnnlstm,37791_tle_20250729_214501_last90d_enctrig_w60_h7,37791,semi_major_axis,0.12137064117610488,0.0014804773854848463,7,60.0,last90d,99.95764302933215,512.0,,,,,120.0,128.0,5.0,,,-0.9158863537649442
cnnlstm,37791_tle_20250729_214501_last90d_enctrig_w60_h7,37791,inclination_deg,0.00014121987497430998,,7,60.0,last90d,99.95764302933215,512.0,,,,,120.0,128.0,5.0,,,-3.8501041773334594
cnnlstm,37791_tle_20250729_214501_last90d_enctrig_w60_h7,37791,raan_deg,4.50688751722822,,7,60.0,last90d,99.95764302933215,512.0,,,,,120.0,128.0,5.0,,,0.653876719096783
cnnlstm,37791_tle_20250729_214501_last90d_enctrig_w60_h7,37791,arg_perigee_deg,45.95639507567554,,7,60.0,last90d,99.95764302933215,512.0,,,,,120.0,128.0,5.0,,,1.6623459543037855
cnnlstm,37791_tle_20250729_214501_last90d_enctrig_w60_h7,37791,mean_anomaly_deg,20.38073294554257,,7,60.0,last90d,99.95764302933215,512.0,,,,,120.0,128.0,5.0,,,1.309219798339735
cnnlstm,37791_tle_20250729_214501_last180d_enctrig_w60_h7,37791,eccentricity,4.996305796267693e-05,0.2464026678353548,7,60.0,last180d,99.9127345875119,512.0,,,,,120.0,128.0,5.0,,,-4.3013509887191566
cnnlstm,37791_tle_20250729_214501_last180d_enctrig_w60_h7,37791,mean_motion,0.0016589294941855251,0.01052811203408055,7,60.0,last180d,99.9127345875119,512.0,,,,,120.0,128.0,5.0,,,-2.7801720714420965
cnnlstm,37791_tle_20250729_214501_last180d_enctrig_w60_h7,37791,semi_major_axis,0.401882666667466,0.004865457594860345,7,60.0,last180d,99.9127345875119,512.0,,,,,120.0,128.0,5.0,,,-0.3959007246688952
cnnlstm,37791_tle_20250729_214501_last180d_enctrig_w60_h7,37791,inclination_deg,0.0006089111664878467,,7,60.0,last180d,99.9127345875119,512.0,,,,,120.0,128.0,5.0,,,-3.215446061584191
